NORAD_CAT_ID,OBJECT_NAME,OBJECT_TYPE,EPOCH,MEAN_MOTION,ECCENTRICITY,INCLINATION,RA_OF_ASC_NODE,ARG_OF_PERICENTER,MEAN_ANOMALY,BSTAR,MEAN_MOTION_DOT,MEAN_MOTION_DDOT,TLE_LINE0,TLE_LINE1,TLE_LINE2,SEMIMAJOR_AXIS,PERIOD,APOGEE,PERIGEE,DECAYED
55407.0,STARLINK-5019,PAYLOAD,2024-04-17 20:38:55,14.98314452,0.0003118,70.0003,6.3756,273.7721,86.3081,-0.00010756,-1.376e-05,0.0,0 STARLINK-5019,1 55407U 23014S   24108.86036204 -.00001376  00000-0 -10756-3 0  9996,2 55407  70.0003   6.3756 0003118 273.7721  86.3081 14.98314452 67631,6950.241,96.108,574.273,569.939,0.0
55407.0,STARLINK-5019,PAYLOAD,2024-04-18 01:27:15,14.98370463,0.000306,70.0006,5.8721,242.8704,117.2143,0.00037619,4.403e-05,0.0,0 STARLINK-5019,1 55407U 23014S   24109.06059346  .00004403  00000-0  37619-3 0  9990,2 55407  70.0006   5.8721 0003060 242.8704 117.2143 14.98370463 67664,6950.068,96.104,574.059,569.806,0.0
55407.0,STARLINK-5019,PAYLOAD,2024-04-18 20:40:58,14.98288948,0.0003821,69.9999,3.8516,284.3715,75.702,-0.00054465,-6.579e-05,0.0,0 STARLINK-5019,1 55407U 23014S   24109.86178279 -.00006579  00000-0 -54465-3 0  9991,2 55407  69.9999   3.8516 0003821 284.3715  75.7020 14.98288948 67781,6950.32,96.11,574.841,569.529,0.0
55407.0,STARLINK-5019,PAYLOAD,2024-04-19 03:05:30,14.98293639,0.0003314,70.0,3.1808,263.3873,96.6909,-0.00061061,-7.364e-05,0.0,0 STARLINK-5019,1 55407U 23014S   24110.12882484 -.00007364  00000-0 -61061-3 0  9995,2 55407  70.0000   3.1808 0003314 263.3873  96.6909 14.98293639 67829,6950.305,96.109,574.474,569.867,0.0
55407.0,STARLINK-5019,PAYLOAD,2024-04-19 20:42:55,14.98351335,0.0003091,70.001,1.3293,232.607,127.4808,0.00010787,1.195e-05,0.0,0 STARLINK-5019,1 55407U 23014S   24110.86314158  .00001195  00000-0  10787-3 0  9997,2 55407  70.0010   1.3293 0003091 232.6070 127.4808 14.98351335 67939,6950.127,96.106,574.14,569.844,0.0
55407.0,STARLINK-5019,PAYLOAD,2024-04-19 22:19:03,14.98340668,0.0003272,70.0024,1.164,214.2669,145.828,0.00028603,3.322e-05,0.0,0 STARLINK-5019,1 55407U 23014S   24110.92990193  .00003322  00000-0  28603-3 0  9993,2 55407  70.0024   1.1640 0003272 214.2669 145.8280 14.98340668 68889,6950.16,96.106,574.299,569.751,0.0
55407.0,STARLINK-5019,PAYLOAD,2024-04-20 03:07:26,14.98348218,0.0003106,70.0007,0.6579,242.2768,117.8076,0.00040237,4.714e-05,0.0,0 STARLINK-5019,1 55407U 23014S   24111.13017350  .00004714  00000-0  40237-3 0  9995,2 55407  70.0007   0.6579 0003106 242.2768 117.8076 14.98348218 68917,6950.137,96.106,574.16,569.843,0.0
55407.0,STARLINK-5019,PAYLOAD,2024-04-20 20:44:58,14.98299634,0.000319,70.0004,358.8035,265.3456,94.7338,0.00044875,5.261e-05,0.0,0 STARLINK-5019,1 55407U 23014S   24111.86456310  .00005261  00000-0  44875-3 0  9998,2 55407  70.0004 358.8035 0003190 265.3456  94.7338 14.98299634 68081,6950.287,96.109,574.369,569.935,0.0
55407.0,STARLINK-5019,PAYLOAD,2024-04-21 03:09:30,14.98303293,0.0003118,70.0006,358.1303,260.1495,99.9312,0.00044258,5.188e-05,0.0,0 STARLINK-5019,1 55407U 23014S   24112.13160509  .00005188  00000-0  44258-3 0  9994,2 55407  70.0006 358.1303 0003118 260.1495  99.9312 14.98303293 69065,6950.275,96.109,574.308,569.973,0.0
55407.0,STARLINK-5019,PAYLOAD,2024-04-21 19:10:50,14.98347424,0.0003091,70.0001,356.4452,266.86,93.2205,-5.6628e-05,-7.69e-06,0.0,0 STARLINK-5019,1 55407U 23014S   24112.79919214 -.00000769  00000-0 -56628-4 0  9998,2 55407  70.0001 356.4452 0003091 266.8600  93.2205 14.98347424 68226,6950.139,96.106,574.152,569.856,0.0
55407.0,STARLINK-5019,PAYLOAD,2024-04-21 22:23:06,14.9834881,0.0002759,70.0005,356.1099,259.1603,100.9246,-6.8047e-05,-9.05e-06,0.0,0 STARLINK-5019,1 55407U 23014S   24112.93271064 -.00000905  00000-0 -68047-4 0  9998,2 55407  70.0005 356.1099 0002759 259.1603 100.9246 14.98348810 69189,6950.135,96.106,573.917,570.082,0.0
55407.0,STARLINK-5019,PAYLOAD,2024-04-22 01:35:21,14.98358787,0.0002921,69.9999,355.7731,266.3026,93.7799,2.9863e-05,2.64e-06,0.0,0 STARLINK-5019,1 55407U 23014S   24113.06621977  .00000264  00000-0  29863-4 0  9994,2 55407  69.9999 355.7731 0002921 266.3026  93.7799 14.98358787 68260,6950.104,96.105,573.999,569.939,0.0
55407.0,STARLINK-5019,PAYLOAD,2024-04-22 20:49:00,14.98317531,0.0003325,69.9999,353.7529,261.6871,98.3911,-6.4056e-05,-8.57e-06,0.0,0 STARLINK-5019,1 55407U 23014S   24113.86736669 -.00000857  00000-0 -64056-4 0  9990,2 55407  69.9999 353.7529 0003325 261.6871  98.3911 14.98317531 68380,6950.231,96.108,574.407,569.785,0.0
55407.0,STARLINK-5019,PAYLOAD,2024-04-22 22:25:08,14.98318011,0.00033,69.9997,353.5838,262.0813,97.9972,-5.7403e-05,-7.78e-06,0.0,0 STARLINK-5019,1 55407U 23014S   24113.93412668 -.00000778  00000-0 -57403-4 0  9998,2 55407  69.9997 353.5838 0003300 262.0813  97.9972 14.98318011 69335,6950.23,96.108,574.389,569.801,0.0
55407.0,STARLINK-5019,PAYLOAD,2024-04-23 01:37:24,14.98319156,0.0003304,69.9997,353.2468,265.7031,94.375,-1.9081e-05,-3.21e-06,0.0,0 STARLINK-5019,1 55407U 23014S   24114.06764599 -.00000321  00000-0 -19081-4 0  9990,2 55407  69.9997 353.2468 0003304 265.7031  94.3750 14.98319156 69355,6950.226,96.108,574.388,569.795,0.0
55407.0,STARLINK-5019,PAYLOAD,2024-04-23 20:51:00,14.98338706,0.0003238,69.9992,351.2234,271.7097,88.3692,8.1173e-07,-8.3e-07,0.0,0 STARLINK-5019,1 55407U 23014S   24114.86875295 -.00000083  00000-0  81173-6 0  9991,2 55407  69.9992 351.2234 0003238 271.7097  88.3692 14.98338706 68533,6950.166,96.106,574.281,569.781,0.0
55407.0,STARLINK-5019,PAYLOAD,2024-04-23 22:27:07,14.98341498,0.0002833,70.0003,351.0564,256.3266,103.7578,4.504e-05,4.45e-06,0.0,0 STARLINK-5019,1 55407U 23014S   24114.93550913  .00000445  00000-0  45040-4 0  9998,2 55407  70.0003 351.0564 0002833 256.3266 103.7578 14.98341498 69482,6950.157,96.106,573.991,570.053,0.0
55407.0,STARLINK-5019,PAYLOAD,2024-04-24 01:39:23,14.9834362,0.0002532,70.002,350.7201,271.3606,88.7263,9.9857e-05,1.099e-05,0.0,0 STARLINK-5019,1 55407U 23014S   24115.06902714  .00001099  00000-0  99857-4 0  9994,2 55407  70.0020 350.7201 0002532 271.3606  88.7263 14.98343620 68566,6950.151,96.106,573.776,570.256,0.0
55407.0,STARLINK-5019,PAYLOAD,2024-04-24 20:53:01,14.98324942,0.0003295,69.9994,348.7022,263.5441,96.5343,0.00013345,1.499e-05,0.0,0 STARLINK-5019,1 55407U 23014S   24115.87015583  .00001499  00000-0  13345-3 0  9993,2 55407  69.9994 348.7022 0003295 263.5441  96.5343 14.98324942 68683,6950.209,96.107,574.364,569.783,0.0
55407.0,STARLINK-5019,PAYLOAD,2024-04-24 22:29:09,14.98321071,0.0002955,70.0003,348.5346,261.007,99.0754,0.00015836,1.797e-05,0.0,0 STARLINK-5019,1 55407U 23014S   24115.93691790  .00001797  00000-0  15836-3 0  9998,2 55407  70.0003 348.5346 0002955 261.0070  99.0754 14.98321071 69637,6950.221,96.108,574.139,570.032,0.0
55407.0,STARLINK-5019,PAYLOAD,2024-04-25 14:30:30,14.98337095,0.0003307,69.9996,346.8519,251.6375,108.4424,-0.00013333,-1.684e-05,0.0,0 STARLINK-5019,1 55407U 23014S   24116.60451516 -.00001684  00000-0 -13333-3 0  9990,2 55407  69.9996 346.8519 0003307 251.6375 108.4424 14.98337095 69736,6950.171,96.107,574.334,569.738,0.0
55407.0,STARLINK-5019,PAYLOAD,2024-04-25 20:55:01,14.98339311,0.0003004,70.0005,346.1783,248.0706,112.0134,-4.7273e-05,-6.57e-06,0.0,0 STARLINK-5019,1 55407U 23014S   24116.87155053 -.00000657  00000-0 -47273-4 0  9996,2 55407  70.0005 346.1783 0003004 248.0706 112.0134 14.98339311 68830,6950.164,96.106,574.117,569.941,0.0
55407.0,STARLINK-5019,PAYLOAD,2024-04-25 22:31:10,14.98338696,0.0002988,70.0006,346.0103,250.7116,109.372,-7.2282e-05,-9.56e-06,0.0,0 STARLINK-5019,1 55407U 23014S   24116.93831147 -.00000956  00000-0 -72282-4 0  9998,2 55407  70.0006 346.0103 0002988 250.7116 109.3720 14.98338696 69781,6950.166,96.106,574.108,569.954,0.0
55407.0,STARLINK-5019,PAYLOAD,2024-04-26 01:43:26,14.98334291,0.0003208,69.9995,345.6684,276.5504,83.5289,-0.00010402,-1.334e-05,0.0,0 STARLINK-5019,1 55407U 23014S   24117.07183557 -.00001334  00000-0 -10402-3 0  9995,2 55407  69.9995 345.6684 0003208 276.5504  83.5289 14.98334291 68865,6950.18,96.107,574.274,569.815,0.0
55407.0,STARLINK-5019,PAYLOAD,2024-04-26 08:07:58,14.98336821,0.0003256,69.9993,344.9965,269.6473,90.4313,-0.00017257,-2.152e-05,0.0,0 STARLINK-5019,1 55407U 23014S   24117.33887344 -.00002152  00000-0 -17257-3 0  9993,2 55407  69.9993 344.9965 0003256 269.6473  90.4313 14.98336821 69843,6950.172,96.107,574.3,569.774,0.0
55407.0,STARLINK-5019,PAYLOAD,2024-04-26 16:08:39,14.98325688,0.0003688,69.9982,344.1537,275.883,84.1908,8.7724e-05,9.54e-06,0.0,0 STARLINK-5019,1 55407U 23014S   24117.67267408  .00000954  00000-0  87724-4 0  9996,2 55407  69.9982 344.1537 0003688 275.8830  84.1908 14.98325688 69897,6950.206,96.107,574.634,569.508,0.0
55407.0,STARLINK-5019,PAYLOAD,2024-04-27 20:59:04,14.9833089,0.0003097,70.0,341.1282,269.3883,90.6922,-3.4422e-06,-1.34e-06,0.0,0 STARLINK-5019,1 55407U 23014S   24118.87435253 -.00000134  00000-0 -34422-5 0  9994,2 55407  70.0000 341.1282 0003097 269.3883  90.6922 14.98330890 69131,6950.19,96.107,574.208,569.903,0.0
55407.0,STARLINK-5019,PAYLOAD,2024-04-28 00:11:20,14.98309445,0.0003075,69.9996,340.79,268.0875,91.9931,0.00026313,3.046e-05,0.0,0 STARLINK-5019,1 55407U 23014S   24119.00788088  .00003046  00000-0  26313-3 0  9998,2 55407  69.9996 340.7900 0003075 268.0875  91.9931 14.98309445 69155,6950.256,96.108,574.259,569.984,0.0
55407.0,STARLINK-5019,PAYLOAD,2024-04-28 14:36:32,14.98333037,0.0002838,69.9993,339.2749,268.8605,91.2229,-7.3723e-05,-9.73e-06,0.0,0 STARLINK-5019,1 55407U 23014S   24119.60871378 -.00000973  00000-0 -73723-4 0  9995,2 55407  69.9993 339.2749 0002838 268.8605  91.2229 14.98333037 70183,6950.183,96.107,574.021,570.076,0.0
55407.0,STARLINK-5019,PAYLOAD,2024-04-28 21:01:05,14.98333003,0.0003016,69.999,338.6004,267.2305,92.8509,-6.5114e-05,-8.7e-06,0.0,0 STARLINK-5019,1 55407U 23014S   24119.87575257 -.00000870  00000-0 -65114-4 0  9992,2 55407  69.9990 338.6004 0003016 267.2305  92.8509 14.98333003 69286,6950.184,96.107,574.145,569.952,0.0
